{"time":1.879,"result":[{"_id":2460236933,"name":"Empório da Cerveja","shop":"beverages","location":{"type":"Point","coordinates":[-38.9440078,-12.2598861]}},{"_id":1780340377,"addr:housenumber":"639","addr:street":"Rua São Domingos","amenity":"restaurant","name":"Faenza","location":{"type":"Point","coordinates":[-38.9442721,-12.2590984]}},{"_id":1937059259,"amenity":"restaurant","name":"La Pasta Place","location":{"type":"Point","coordinates":[-38.943256,-12.2579082]}},{"_id":2441050766,"amenity":"restaurant","name":"Kero Pizza","location":{"type":"Point","coordinates":[-38.9439961,-12.2568758]}},{"_id":1780340380,"addr:street":"Rua São Domingos","amenity":"restaurant","cuisine":"regional","name":"Paradinha Pastelaria","location":{"type":"Point","coordinates":[-38.9440245,-12.2573401]}},{"_id":1780340354,"name":"Depózitto","shop":"beverages","location":{"type":"Point","coordinates":[-38.9440352,-12.2575132]}},{"_id":1780340362,"addr:housenumber":"793","addr:street":"Rua São Domingos","amenity":"bar","name":"Filozophia","location":{"type":"Point","coordinates":[-38.9442069,-12.2573349]}},{"_id":1780354125,"amenity":"restaurant","cuisine":"sushi","name":"Teriyaki","location":{"type":"Point","coordinates":[-38.9440346,-12.2576335]}},{"_id":2407005392,"amenity":"place_of_worship","denomination":"presbyterian","name":"Igreja Presbiteriana Betel","religion":"christian","location":{"type":"Point","coordinates":[-38.9433286,-12.2579805]}},{"_id":1780354124,"amenity":"restaurant","name":"Ao Vento","location":{"type":"Point","coordinates":[-38.9440668,-12.2585404]}},{"_id":1780340348,"amenity":"bar","name":"Cortiço Drinks","location":{"type":"Point","coordinates":[-38.9442335,-12.2585249]}},{"_id":2047303668,"amenity":"bar","name":"Boteco do Camarão","location":{"type":"Point","coordinates":[-38.9442431,-12.2586574]}},{"_id":1780340342,"amenity":"fast_food","name":"Casa das Coxinhas","location":{"type":"Point","coordinates":[-38.944254,-12.2588205]}},{"_id":1780340328,"amenity":"fast_food","name":"Açaí do Jota","wheelchair":"yes","location":{"type":"Point","coordinates":[-38.9442332,-12.258356]}},{"_id":2129219541,"name":"Casa do Bolo Nordestino","shop":"bakery","wheelchair":"yes","location":{"type":"Point","coordinates":[-38.9442314,-12.2582688]}},{"_id":1780340351,"name":"D'Gustare","shop":"bakery","location":{"type":"Point","coordinates":[-38.9440619,-12.2583626]}},{"_id":2037591260,"amenity":"restaurant","cuisine":"sushi","name":"Sashimi","location":{"type":"Point","coordinates":[-38.9440547,-12.2581953]}},{"_id":1780340384,"amenity":"restaurant","cuisine":"pizza","name":"Pepperoni","phone":"+55 75 3625-6210","location":{"type":"Point","coordinates":[-38.9440565,-12.2580322]}},{"_id":1780986138,"addr:housenumber":"340","amenity":"restaurant","cuisine":"chinese","name":"Saigon","phone":"+55 75 3622-6633","website":"https://www.saigonrestaurante.com.br/","location":{"type":"Point","coordinates":[-38.944842,-12.2583334]}},{"_id":1754375998,"addr:street":"Rua Frei Aureliano Grotamares","amenity":"nightclub","name":"Kabana's Bar","phone":"+55 75 3625-8850","location":{"type":"Point","coordinates":[-38.9454403,-12.2573221]}},{"_id":9606052484,"addr:city":"Feira de Santana","addr:housenumber":"739","addr:postcode":"44076-380","addr:street":"Rua Marechal Castelo Branco","addr:suburb":"Capucinhos","amenity":"clinic","healthcare":"clinic","healthcare:speciality":"general","name":"Reference Dental Institute","opening_hours":"Mo-Su 09:00-21:00","operator":"Thiago","location":{"type":"Point","coordinates":[-38.9451154,-12.2573442]}}]}