{"time":1.303,"result":[{"_id":1780354124,"amenity":"restaurant","name":"Ao Vento","location":{"type":"Point","coordinates":[-38.9440668,-12.2585404]}},{"_id":1780340348,"amenity":"bar","name":"Cortiço Drinks","location":{"type":"Point","coordinates":[-38.9442335,-12.2585249]}},{"_id":1780340328,"amenity":"fast_food","name":"Açaí do Jota","wheelchair":"yes","location":{"type":"Point","coordinates":[-38.9442332,-12.258356]}},{"_id":2129219541,"name":"Casa do Bolo Nordestino","shop":"bakery","wheelchair":"yes","location":{"type":"Point","coordinates":[-38.9442314,-12.2582688]}},{"_id":1780340351,"name":"D'Gustare","shop":"bakery","location":{"type":"Point","coordinates":[-38.9440619,-12.2583626]}},{"_id":2037591260,"amenity":"restaurant","cuisine":"sushi","name":"Sashimi","location":{"type":"Point","coordinates":[-38.9440547,-12.2581953]}},{"_id":1780340384,"amenity":"restaurant","cuisine":"pizza","name":"Pepperoni","phone":"+55 75 3625-6210","location":{"type":"Point","coordinates":[-38.9440565,-12.2580322]}}]}